[{"OBJECT_NAME":"OBJECT A","OBJECT_ID":"2023-085A","EPOCH":"2026-03-09T21:42:39.504096","MEAN_MOTION":15.28003151,"ECCENTRICITY":0.00073195,"INCLINATION":97.4858,"RA_OF_ASC_NODE":178.2033,"ARG_OF_PERICENTER":32.2499,"MEAN_ANOMALY":327.9186,"EPHEMERIS_TYPE":0,"CLASSIFICATION_TYPE":"U","NORAD_CAT_ID":57004,"ELEMENT_SET_NO":999,"REV_AT_EPOCH":15139,"BSTAR":0.00063583858,"MEAN_MOTION_DOT":0.0001733,"MEAN_MOTION_DDOT":0},{"OBJECT_NAME":"STARLINK-31197","OBJECT_ID":"2024-019G","EPOCH":"2026-03-09T12:33:49.192992","MEAN_MOTION":15.27580405,"ECCENTRICITY":5.751e-5,"INCLINATION":43,"RA_OF_ASC_NODE":250.1498,"ARG_OF_PERICENTER":238.4464,"MEAN_ANOMALY":121.6331,"EPHEMERIS_TYPE":0,"CLASSIFICATION_TYPE":"U","NORAD_CAT_ID":58859,"ELEMENT_SET_NO":999,"REV_AT_EPOCH":11905,"BSTAR":-1.0146495e-5,"MEAN_MOTION_DOT":-5.41e-6,"MEAN_MOTION_DDOT":0}]
